[{"OBJECT_NAME":"STARLINK-33996","OBJECT_ID":"2025-098U","EPOCH":"2026-03-09T23:26:32.793216","MEAN_MOTION":14.98330939,"ECCENTRICITY":0.00029859,"INCLINATION":69.9998,"RA_OF_ASC_NODE":273.8033,"ARG_OF_PERICENTER":267.8144,"MEAN_ANOMALY":92.2673,"EPHEMERIS_TYPE":0,"CLASSIFICATION_TYPE":"U","NORAD_CAT_ID":63944,"ELEMENT_SET_NO":999,"REV_AT_EPOCH":4659,"BSTAR":0.00037867253,"MEAN_MOTION_DOT":4.428e-5,"MEAN_MOTION_DDOT":0},{"OBJECT_NAME":"CZ-6A DEB","OBJECT_ID":"2024-140DR","EPOCH":"2026-03-09T19:52:08.590080","MEAN_MOTION":14.67947666,"ECCENTRICITY":0.01507927,"INCLINATION":88.8745,"RA_OF_ASC_NODE":272.0518,"ARG_OF_PERICENTER":194.3001,"MEAN_ANOMALY":165.3928,"EPHEMERIS_TYPE":0,"CLASSIFICATION_TYPE":"U","NORAD_CAT_ID":60712,"ELEMENT_SET_NO":999,"REV_AT_EPOCH":8418,"BSTAR":0.00048384555,"MEAN_MOTION_DOT":3.311e-5,"MEAN_MOTION_DDOT":0}]
